PROBA-1                 
1 26958U 01049B   26188.18183069  .00002960  00000+0  19227-3 0  9995
2 26958  97.9595 197.4132 0056044  56.1646 304.4897 15.07588436346634
CUTE-1 (CO-55)          
1 27844U 03031E   26187.98753248  .00000239  00000+0  12235-3 0  9991
2 27844  98.6738 196.2974 0010610 123.9275 236.2914 14.24347889194497
CUBESAT XI-IV (CO-57)   
1 27848U 03031J   26187.98593671  .00000199  00000+0  10620-3 0  9998
2 27848  98.6770 195.9925 0010187 141.0143 219.1771 14.23631325194191
APRIZESAT 4             
1 35684U 09041D   26188.14924469  .00000587  00000+0  76744-4 0  9995
2 35684  98.1405 263.8672 0041924 256.3784 103.2759 14.83906300914324
APRIZESAT 3             
1 35686U 09041F   26188.16101992  .00001196  00000+0  10783-3 0  9994
2 35686  98.2083 342.3446 0061435   2.2861 357.8628 14.96293216919364
PROBA-2                 
1 36037U 09059B   26187.97901935  .00000166  00000+0  49256-4 0  9991
2 36037  98.2457  11.0579 0012451 215.0638 144.9740 14.54871089884407
APRIZESAT 5             
1 37792U 11044E   26187.73418369  .00000892  00000+0  11993-3 0  9997
2 37792  98.2450 121.3291 0050926 300.6841  58.9357 14.81117103801688
APRIZESAT 6             
1 37793U 11044F   26187.99757007  .00000726  00000+0  10946-3 0  9994
2 37793  98.2347  98.9005 0043707  24.2857  38.9828 14.76948014800071
PROBA-V                 
1 39159U 13021A   26187.93942113  .00000100  00000+0  61957-4 0  9992
2 39159  98.3598 165.5720 0005423  78.7537 281.4252 14.23602192683920
APRIZESAT 7             
1 39416U 13066A   26187.87681183  .00001165  00000+0  12026-3 0  9991
2 39416  97.7717 140.8148 0036677 144.0223 216.3476 14.91606290684166
APRIZESAT 8             
1 39425U 13066K   26187.84882411  .00000749  00000+0  87018-4 0  9996
2 39425  97.8227 135.0435 0044824 219.7671 140.0257 14.87687259682592
BUGSAT-1 (TITA)         
1 40014U 14033E   26188.23768414  .00005238  00000+0  27510-3 0  9995
2 40014  98.0429 281.9624 0029177 111.8974 248.5363 15.15826197658872
SAUDISAT 4              
1 40016U 14033G   26187.93411650  .00000515  00000+0  74507-4 0  9992
2 40016  97.7608 333.3885 0044969  11.0111 349.2075 14.79569333648996
APRIZESAT 9             
1 40018U 14033J   26187.89098000  .00000682  00000+0  10714-3 0  9993
2 40018  97.9085 320.6105 0067109 136.1469 224.5095 14.74244511646469
APRIZESAT 10            
1 40019U 14033K   26187.92258437  .00000545  00000+0  93315-4 0  9997
2 40019  97.9673 314.4444 0078090 209.8934 149.7802 14.70903896645159
TECHDEMOSAT-1 (TDS-1)   
1 40076U 14037H   26187.92712602  .00006128  00000+0  34545-3 0  9995
2 40076  98.3825 182.1007 0006151 185.3329 174.7835 15.13602397651214
TECHNOSAT               
1 42829U 17042E   26187.92920498  .00002738  00000+0  19609-3 0  9993
2 42829  97.4298 344.8389 0018092  30.2814 329.9454 15.05073711489673
FLYING LAPTOP           
1 42831U 17042G   26188.18197084  .00001740  00000+0  13928-3 0  9992
2 42831  97.4782 342.9572 0019945  57.8207 302.4948 15.01275179489454
HAWK-A                  
1 43765U 18099H   26188.10165034  .00005206  00000+0  20888-3 0  9998
2 43765  97.3900 240.0795 0033891 212.7846 147.1289 15.24894190416136
HAWK-B                  
1 43794U 18099AN  26188.14703259  .00004629  00000+0  19709-3 0  9999
2 43794  97.3948 239.4973 0030668 231.0979 128.7522 15.23054425416076
HAWK-C                  
1 43799U 18099AT  26188.09833466  .00006382  00000+0  22825-3 0  9993
2 43799  97.3878 241.0870 0039526 212.7144 147.1647 15.28404200416955
SALSAT                  
1 46495U 20068K   26187.96288697  .00005977  00000+0  20799-3 0  9990
2 46495  97.8858 192.2352 0008388 224.1445 135.9125 15.30092809318384
HAWK-2C                 
1 47502U 21006CT  26188.10294113  .00004881  00000+0  14630-3 0  9990
2 47502  97.2268 232.0168 0008438 124.2013 236.0032 15.34919530302553
HAWK-2A                 
1 47505U 21006CW  26188.10524384  .00004879  00000+0  14619-3 0  9993
2 47505  97.2309 232.7085 0007917 127.1585 233.0383 15.34933694302557
HAWK-2B                 
1 47508U 21006CZ  26188.09943542  .00005634  00000+0  16777-3 0  9992
2 47508  97.2179 231.0031 0008490 125.6837 234.5198 15.35057195302552
HAWK-3B                 
1 48931U 21059BE  26187.50439762  .00036099  00000+0  28563-3 0  9995
2 48931  97.6647  26.0618 0003758 231.7433 128.3491 15.71268243280888
HAWK-3C                 
1 48948U 21059BX  26188.01356433  .00035456  00000+0  28021-3 0  9998
2 48948  97.6768  32.3408 0003979 231.9425 128.1479 15.71298826280968
HAWK-3A                 
1 48957U 21059CG  26188.01345058  .00036405  00000+0  28767-3 0  9991
2 48957  97.6708  29.5295 0003887 234.0895 126.0006 15.71296947280962
HAWK-5C                 
1 52754U 22057Y   26187.90587611  .00013430  00000+0  22393-3 0  9992
2 52754  97.6618 348.8566 0003582  17.2726 342.8647 15.52113906229409
HAWK-5B                 
1 52756U 22057AA  26187.90568698  .00013956  00000+0  23257-3 0  9991
2 52756  97.6633 347.2083 0004159   4.9543 355.1749 15.52118713229407
HAWK-5A                 
1 52757U 22057AB  26187.90549208  .00013822  00000+0  23036-3 0  9995
2 52757  97.6630 348.0393 0004072   9.8168 350.3162 15.52118788229407
